NORAD_CAT_ID,OBJECT_NAME,OBJECT_TYPE,EPOCH,MEAN_MOTION,ECCENTRICITY,INCLINATION,RA_OF_ASC_NODE,ARG_OF_PERICENTER,MEAN_ANOMALY,BSTAR,MEAN_MOTION_DOT,MEAN_MOTION_DDOT,TLE_LINE0,TLE_LINE1,TLE_LINE2,SEMIMAJOR_AXIS,PERIOD,APOGEE,PERIGEE,DECAYED
53629.0,STARLINK-4602,PAYLOAD,2023-06-08 01:26:39,15.08838607,0.0001095,53.2179,68.2467,106.7837,253.3275,-1.7584e-05,-5.68e-06,0.0,0 STARLINK-4602,1 53629U 22104AT  23159.06018324 -.00000568  00000-0 -17584-4 0  9998,2 53629  53.2179  68.2467 0001095 106.7837 253.3275 15.08838607 43947,6917.885,95.438,540.507,538.992,0.0
53629.0,STARLINK-4602,PAYLOAD,2023-06-09 02:52:49,15.08846887,8.6e-05,53.2176,63.4858,91.2417,268.8674,9.4466e-05,1.216e-05,0.0,0 STARLINK-4602,1 53629U 22104AT  23160.12001535  .00001216  00000-0  94466-4 0  9996,2 53629  53.2176  63.4858 0000860  91.2417 268.8674 15.08846887 43411,6917.859,95.437,540.319,539.129,0.0
53629.0,STARLINK-4602,PAYLOAD,2023-06-09 10:49:45,15.08839079,8.74e-05,53.2173,61.9986,115.3893,244.7189,-4.1768e-06,-3.54e-06,0.0,0 STARLINK-4602,1 53629U 22104AT  23160.45122203 -.00000354  00000-0 -41768-5 0  9990,2 53629  53.2173  61.9986 0000874 115.3893 244.7189 15.08839079 43468,6917.883,95.438,540.353,539.144,0.0
53629.0,STARLINK-4602,PAYLOAD,2023-06-09 20:22:04,15.08835448,9.61e-05,53.2173,60.2158,89.951,270.1592,-1.6853e-05,-5.56e-06,0.0,0 STARLINK-4602,1 53629U 22104AT  23160.84866781 -.00000556  00000-0 -16853-4 0  9999,2 53629  53.2173  60.2158 0000961  89.9510 270.1592 15.08835448 44211,6917.894,95.438,540.424,539.094,0.0
53629.0,STARLINK-4602,PAYLOAD,2023-06-10 10:40:33,15.08835582,8.81e-05,53.2173,57.5393,99.561,260.5482,-3.8315e-06,-3.49e-06,0.0,0 STARLINK-4602,1 53629U 22104AT  23161.44482675 -.00000349  00000-0 -38315-5 0  9990,2 53629  53.2173  57.5393 0000881  99.5610 260.5482 15.08835582 44300,6917.894,95.438,540.368,539.149,0.0
53629.0,STARLINK-4602,PAYLOAD,2023-06-10 20:12:51,15.08840472,8.35e-05,53.2174,55.7552,93.9907,266.1181,-6.2496e-07,-2.98e-06,0.0,0 STARLINK-4602,1 53629U 22104AT  23161.84226409 -.00000298  00000-0 -62496-6 0  9996,2 53629  53.2174  55.7552 0000835  93.9907 266.1181 15.08840472 44362,6917.879,95.438,540.322,539.166,0.0
53629.0,STARLINK-4602,PAYLOAD,2023-06-10 23:23:37,15.08841937,8.46e-05,53.2175,55.1603,94.93,265.1789,8.0368e-06,-1.6e-06,0.0,0 STARLINK-4602,1 53629U 22104AT  23161.97474277 -.00000160  00000-0  80368-5 0  9992,2 53629  53.2175  55.1603 0000846  94.9300 265.1789 15.08841937 43699,6917.874,95.437,540.325,539.154,0.0
53629.0,STARLINK-4602,PAYLOAD,2023-06-11 16:52:52,15.08836734,9.92e-05,53.2172,51.8893,88.8933,271.2173,5.1689e-05,5.35e-06,0.0,0 STARLINK-4602,1 53629U 22104AT  23162.70338419  .00000535  00000-0  51689-4 0  9999,2 53629  53.2172  51.8893 0000992  88.8933 271.2173 15.08836734 44499,6917.89,95.438,540.442,539.069,0.0
53629.0,STARLINK-4602,PAYLOAD,2023-06-12 02:25:10,15.08844079,9.91e-05,53.2174,50.1044,90.7971,269.3135,3.5825e-05,2.83e-06,0.0,0 STARLINK-4602,1 53629U 22104AT  23163.10081976  .00000283  00000-0  35825-4 0  9991,2 53629  53.2174  50.1044 0000991  90.7971 269.3135 15.08844079 43861,6917.868,95.437,540.418,539.047,0.0
53629.0,STARLINK-4602,PAYLOAD,2023-06-12 23:05:12,15.08832043,7.98e-05,53.2179,46.2416,78.6917,281.4164,1.9426e-05,2.1e-07,0.0,0 STARLINK-4602,1 53629U 22104AT  23163.96194919  .00000021  00000-0  19426-4 0  9996,2 53629  53.2179  46.2416 0000798  78.6917 281.4164 15.08832043 44681,6917.905,95.438,540.322,539.218,0.0
53629.0,STARLINK-4602,PAYLOAD,2023-06-13 14:59:03,15.08836155,0.000113,53.2163,43.2658,95.2615,264.8506,-3.2232e-06,-3.39e-06,0.0,0 STARLINK-4602,1 53629U 22104AT  23164.62434809 -.00000339  00000-0 -32232-5 0  9990,2 53629  53.2163  43.2658 0001130  95.2615 264.8506 15.08836155 44784,6917.892,95.438,540.539,538.975,0.0
53629.0,STARLINK-4602,PAYLOAD,2023-06-14 02:06:45,15.08841651,0.0001188,53.2167,41.1848,97.417,262.6957,4.3174e-05,3.99e-06,0.0,0 STARLINK-4602,1 53629U 22104AT  23165.08802286  .00000399  00000-0  43174-4 0  9999,2 53629  53.2167  41.1848 0001188  97.4170 262.6957 15.08841651 44164,6917.875,95.437,540.562,538.918,0.0
53629.0,STARLINK-4602,PAYLOAD,2023-06-14 16:25:14,15.0883188,0.0001009,53.217,38.5078,83.1921,276.9186,-3.9411e-05,-9.15e-06,0.0,0 STARLINK-4602,1 53629U 22104AT  23165.68419417 -.00000915  00000-0 -39411-4 0  9990,2 53629  53.2170  38.5078 0001009  83.1921 276.9186 15.08831880 44256,6917.905,95.438,540.468,539.072,0.0
53629.0,STARLINK-4602,PAYLOAD,2023-06-15 00:22:09,15.08833685,0.0001168,53.2168,37.0208,86.3638,273.7487,-7.2372e-06,-4.03e-06,0.0,0 STARLINK-4602,1 53629U 22104AT  23166.01539296 -.00000403  00000-0 -72372-5 0  9992,2 53629  53.2168  37.0208 0001168  86.3638 273.7487 15.08833685 44993,6917.9,95.438,540.573,538.957,0.0
53629.0,STARLINK-4602,PAYLOAD,2023-06-15 16:16:01,15.08821242,0.0001032,53.2169,34.0474,90.3709,269.7402,0.00019466,2.81e-05,0.0,0 STARLINK-4602,1 53629U 22104AT  23166.67779397  .00002810  00000-0  19466-3 0  9997,2 53629  53.2169  34.0474 0001032  90.3709 269.7402 15.08821242 45090,6917.938,95.439,540.517,539.089,0.0
53629.0,STARLINK-4602,PAYLOAD,2023-06-16 00:12:56,15.0884606,0.000104,53.2167,32.5598,89.3278,270.7833,3.4239e-05,2.57e-06,0.0,0 STARLINK-4602,1 53629U 22104AT  23167.00898545  .00000257  00000-0  34239-4 0  9991,2 53629  53.2167  32.5598 0001040  89.3278 270.7833 15.08846060 44450,6917.862,95.437,540.446,539.007,0.0
53629.0,STARLINK-4602,PAYLOAD,2023-06-16 08:09:52,15.08845038,0.0001084,53.2171,31.0735,83.8775,276.2341,-1.2992e-06,-3.08e-06,0.0,0 STARLINK-4602,1 53629U 22104AT  23167.34018677 -.00000308  00000-0 -12992-5 0  9990,2 53629  53.2171  31.0735 0001084  83.8775 276.2341 15.08845038 45192,6917.865,95.437,540.48,538.98,0.0
53629.0,STARLINK-4602,PAYLOAD,2023-06-16 20:52:56,15.08848939,0.0001107,53.2177,28.6951,81.0915,279.0203,0.00013526,1.866e-05,0.0,0 STARLINK-4602,1 53629U 22104AT  23167.87009921  .00001866  00000-0  13526-3 0  9990,2 53629  53.2177  28.6951 0001107  81.0915 279.0203 15.08848939 45272,6917.853,95.437,540.484,538.952,0.0
53629.0,STARLINK-4602,PAYLOAD,2023-06-17 08:00:39,15.08835335,0.0001101,53.217,26.6129,89.5721,270.5397,2.0077e-05,3.2e-07,0.0,0 STARLINK-4602,1 53629U 22104AT  23168.33379071  .00000032  00000-0  20077-4 0  9992,2 53629  53.2170  26.6129 0001101  89.5721 270.5397 15.08835335 44659,6917.895,95.438,540.521,538.998,0.0
53629.0,STARLINK-4602,PAYLOAD,2023-06-17 14:22:12,15.08832474,0.0001426,53.2169,25.4235,88.0241,272.0914,-9.4006e-05,-1.783e-05,0.0,0 STARLINK-4602,1 53629U 22104AT  23168.59875914 -.00001783  00000-0 -94006-4 0  9996,2 53629  53.2169  25.4235 0001426  88.0241 272.0914 15.08832474 44690,6917.903,95.438,540.755,538.782,0.0
53629.0,STARLINK-4602,PAYLOAD,2023-06-18 07:51:26,15.08837791,0.0001108,53.218,22.1534,89.9529,270.159,-2.6537e-05,-7.1e-06,0.0,0 STARLINK-4602,1 53629U 22104AT  23169.32739549 -.00000710  00000-0 -26537-4 0  9994,2 53629  53.2180  22.1534 0001108  89.9529 270.1590 15.08837791 44804,6917.887,95.438,540.519,538.986,0.0
53629.0,STARLINK-4602,PAYLOAD,2023-06-18 20:34:31,15.0884594,8.6e-05,53.2174,19.7738,98.0696,262.0394,8.164e-05,1.012e-05,0.0,0 STARLINK-4602,1 53629U 22104AT  23169.85730525  .00001012  00000-0  81640-4 0  9997,2 53629  53.2174  19.7738 0000860  98.0696 262.0394 15.08845940 45577,6917.862,95.437,540.322,539.132,0.0
53629.0,STARLINK-4602,PAYLOAD,2023-06-18 23:45:17,15.0885367,0.0001137,53.2182,19.1797,92.6789,267.4333,5.1414e-05,5.31e-06,0.0,0 STARLINK-4602,1 53629U 22104AT  23169.98978112  .00000531  00000-0  51414-4 0  9998,2 53629  53.2182  19.1797 0001137  92.6789 267.4333 15.08853670 44903,6917.839,95.437,540.49,538.917,0.0
53629.0,STARLINK-4602,PAYLOAD,2023-06-20 01:11:28,15.08832503,0.0001016,53.2182,14.4203,83.4893,276.6215,5.4332e-05,5.77e-06,0.0,0 STARLINK-4602,1 53629U 22104AT  23171.04963745  .00000577  00000-0  54332-4 0  9996,2 53629  53.2182  14.4203 0001016  83.4893 276.6215 15.08832503 45064,6917.903,95.438,540.471,539.065,0.0
53629.0,STARLINK-4602,PAYLOAD,2023-06-20 17:05:19,15.08845029,0.0001018,53.2179,11.449,89.5209,270.5899,5.7455e-06,-1.96e-06,0.0,0 STARLINK-4602,1 53629U 22104AT  23171.71203250 -.00000196  00000-0  57455-5 0  9996,2 53629  53.2179  11.4490 0001018  89.5209 270.5899 15.08845029 45164,6917.865,95.437,540.434,539.026,0.0
53629.0,STARLINK-4602,PAYLOAD,2023-06-20 20:16:05,15.08850718,9.48e-05,53.2181,10.8544,79.9249,280.185,-7.4126e-08,-2.89e-06,0.0,0 STARLINK-4602,1 53629U 22104AT  23171.84450898 -.00000289  00000-0 -74126-7 0  9992,2 53629  53.2181  10.8544 0000948  79.9249 280.1850 15.08850718 45871,6917.848,95.437,540.368,539.057,0.0
53629.0,STARLINK-4602,PAYLOAD,2023-06-20 23:26:51,15.08851839,9.5e-05,53.2181,10.2584,88.0532,272.0569,2.9558e-05,1.83e-06,0.0,0 STARLINK-4602,1 53629U 22104AT  23171.97698619  .00000183  00000-0  29558-4 0  9998,2 53629  53.2181  10.2584 0000950  88.0532 272.0569 15.08851839 45207,6917.844,95.437,540.366,539.052,0.0
53629.0,STARLINK-4602,PAYLOAD,2023-06-21 13:45:21,15.08832049,8.22e-05,53.2171,7.5757,76.508,283.6004,1.3574e-06,-2.66e-06,0.0,0 STARLINK-4602,1 53629U 22104AT  23172.57316014 -.00000266  00000-0  13574-5 0  9996,2 53629  53.2171   7.5757 0000822  76.5080 283.6004 15.08832049 45984,6917.905,95.438,540.338,539.201,0.0
53629.0,STARLINK-4602,PAYLOAD,2023-06-21 18:31:30,15.08835743,0.0001039,53.2178,6.687,90.5909,269.5202,4.1769e-05,3.77e-06,0.0,0 STARLINK-4602,1 53629U 22104AT  23172.77187686  .00000377  00000-0  41769-4 0  9997,2 53629  53.2178   6.6870 0001039  90.5909 269.5202 15.08835743 45329,6917.893,95.438,540.477,539.04,0.0
53629.0,STARLINK-4602,PAYLOAD,2023-06-21 20:06:53,15.08836379,9.9e-05,53.2179,6.3944,80.4765,279.6339,5.1056e-05,5.25e-06,0.0,0 STARLINK-4602,1 53629U 22104AT  23172.83811757  .00000525  00000-0  51056-4 0  9992,2 53629  53.2179   6.3944 0000990  80.4765 279.6339 15.08836379 46029,6917.891,95.438,540.441,539.072,0.0
